CCSDS_OMM_VERS = 2.0
CREATION_DATE  = 
ORIGINATOR     = 

OBJECT_NAME    = CZ-2F DEB
OBJECT_ID      = 2026-024F
CENTER_NAME    = EARTH
REF_FRAME      = TEME
TIME_SYSTEM    = UTC
MEAN_ELEMENT_THEORY = SGP/SGP4

EPOCH          = 2026-03-05T07:02:24.897408
MEAN_MOTION    = 15.02277244
ECCENTRICITY   = .03155592
INCLINATION    = 49.7929
RA_OF_ASC_NODE = 43.0870
ARG_OF_PERICENTER = 253.8358
MEAN_ANOMALY   = 102.7645

EPHEMERIS_TYPE = 0
CLASSIFICATION_TYPE = U
NORAD_CAT_ID   = 67719
ELEMENT_SET_NO = 999
REV_AT_EPOCH   = 358
BSTAR          = .39597535E-2
MEAN_MOTION_DOT = .164538E-2
MEAN_MOTION_DDOT = 0

CCSDS_OMM_VERS = 2.0
CREATION_DATE  = 
ORIGINATOR     = 

OBJECT_NAME    = CZ-2F DEB
OBJECT_ID      = 2026-024G
CENTER_NAME    = EARTH
REF_FRAME      = TEME
TIME_SYSTEM    = UTC
MEAN_ELEMENT_THEORY = SGP/SGP4

EPOCH          = 2026-03-05T04:57:25.731648
MEAN_MOTION    = 14.99536905
ECCENTRICITY   = .0326476
INCLINATION    = 49.8320
RA_OF_ASC_NODE = 44.0642
ARG_OF_PERICENTER = 249.6343
MEAN_ANOMALY   = 106.9250

EPHEMERIS_TYPE = 0
CLASSIFICATION_TYPE = U
NORAD_CAT_ID   = 67720
ELEMENT_SET_NO = 999
REV_AT_EPOCH   = 388
BSTAR          = .38015056E-2
MEAN_MOTION_DOT = .153396E-2
MEAN_MOTION_DDOT = 0

CCSDS_OMM_VERS = 2.0
CREATION_DATE  = 
ORIGINATOR     = 

OBJECT_NAME    = STARLINK-36772
OBJECT_ID      = 2026-026A
CENTER_NAME    = EARTH
REF_FRAME      = TEME
TIME_SYSTEM    = UTC
MEAN_ELEMENT_THEORY = SGP/SGP4

EPOCH          = 2026-03-05T06:00:02.999808
MEAN_MOTION    = 15.65013657
ECCENTRICITY   = .00018101
INCLINATION    = 97.2835
RA_OF_ASC_NODE = 118.6754
ARG_OF_PERICENTER = 75.3224
MEAN_ANOMALY   = 142.3253

EPHEMERIS_TYPE = 0
CLASSIFICATION_TYPE = U
NORAD_CAT_ID   = 67721
ELEMENT_SET_NO = 999
REV_AT_EPOCH   = 460
BSTAR          = -.23148728E-1
MEAN_MOTION_DOT = -.1997283E-1
MEAN_MOTION_DDOT = 0

CCSDS_OMM_VERS = 2.0
CREATION_DATE  = 
ORIGINATOR     = 

OBJECT_NAME    = STARLINK-36796
OBJECT_ID      = 2026-026B
CENTER_NAME    = EARTH
REF_FRAME      = TEME
TIME_SYSTEM    = UTC
MEAN_ELEMENT_THEORY = SGP/SGP4

EPOCH          = 2026-03-05T06:00:02.999808
MEAN_MOTION    = 15.64141552
ECCENTRICITY   = .00018077
INCLINATION    = 97.2836
RA_OF_ASC_NODE = 118.6736
ARG_OF_PERICENTER = 79.7453
MEAN_ANOMALY   = 133.4675

EPHEMERIS_TYPE = 0
CLASSIFICATION_TYPE = U
NORAD_CAT_ID   = 67722
ELEMENT_SET_NO = 999
REV_AT_EPOCH   = 460
BSTAR          = -.24002077E-1
MEAN_MOTION_DOT = -.1999825E-1
MEAN_MOTION_DDOT = 0

CCSDS_OMM_VERS = 2.0
CREATION_DATE  = 
ORIGINATOR     = 

OBJECT_NAME    = STARLINK-36369
OBJECT_ID      = 2026-026C
CENTER_NAME    = EARTH
REF_FRAME      = TEME
TIME_SYSTEM    = UTC
MEAN_ELEMENT_THEORY = SGP/SGP4

EPOCH          = 2026-03-05T06:00:02.999808
MEAN_MOTION    = 15.64543280
ECCENTRICITY   = .00017462
INCLINATION    = 97.2837
RA_OF_ASC_NODE = 118.6785
ARG_OF_PERICENTER = 74.5805
MEAN_ANOMALY   = 150.1354

EPHEMERIS_TYPE = 0
CLASSIFICATION_TYPE = U
NORAD_CAT_ID   = 67723
ELEMENT_SET_NO = 999
REV_AT_EPOCH   = 460
BSTAR          = -.2353431E-1
MEAN_MOTION_DOT = -.1993269E-1
MEAN_MOTION_DDOT = 0

CCSDS_OMM_VERS = 2.0
CREATION_DATE  = 
ORIGINATOR     = 

OBJECT_NAME    = STARLINK-36752
OBJECT_ID      = 2026-026D
CENTER_NAME    = EARTH
REF_FRAME      = TEME
TIME_SYSTEM    = UTC
MEAN_ELEMENT_THEORY = SGP/SGP4

EPOCH          = 2026-03-05T06:00:02.999808
MEAN_MOTION    = 15.65831201
ECCENTRICITY   = .00016648
INCLINATION    = 97.2837
RA_OF_ASC_NODE = 118.6886
ARG_OF_PERICENTER = 74.8053
MEAN_ANOMALY   = 174.8714

EPHEMERIS_TYPE = 0
CLASSIFICATION_TYPE = U
NORAD_CAT_ID   = 67724
ELEMENT_SET_NO = 999
REV_AT_EPOCH   = 460
BSTAR          = -.22342901E-1
MEAN_MOTION_DOT = -.1992563E-1
MEAN_MOTION_DDOT = 0

CCSDS_OMM_VERS = 2.0
CREATION_DATE  = 
ORIGINATOR     = 

OBJECT_NAME    = STARLINK-36754
OBJECT_ID      = 2026-026E
CENTER_NAME    = EARTH
REF_FRAME      = TEME
TIME_SYSTEM    = UTC
MEAN_ELEMENT_THEORY = SGP/SGP4

EPOCH          = 2026-03-05T06:00:02.999808
MEAN_MOTION    = 15.63245754
ECCENTRICITY   = .00017733
INCLINATION    = 97.2836
RA_OF_ASC_NODE = 118.6758
ARG_OF_PERICENTER = 77.8678
MEAN_ANOMALY   = 141.7957

EPHEMERIS_TYPE = 0
CLASSIFICATION_TYPE = U
NORAD_CAT_ID   = 67725
ELEMENT_SET_NO = 999
REV_AT_EPOCH   = 460
BSTAR          = -.24720886E-1
MEAN_MOTION_DOT = -.1989395E-1
MEAN_MOTION_DDOT = 0

CCSDS_OMM_VERS = 2.0
CREATION_DATE  = 
ORIGINATOR     = 

OBJECT_NAME    = STARLINK-36755
OBJECT_ID      = 2026-026F
CENTER_NAME    = EARTH
REF_FRAME      = TEME
TIME_SYSTEM    = UTC
MEAN_ELEMENT_THEORY = SGP/SGP4

EPOCH          = 2026-03-05T06:00:02.999808
MEAN_MOTION    = 15.60797566
ECCENTRICITY   = .00018852
INCLINATION    = 97.2833
RA_OF_ASC_NODE = 118.6624
ARG_OF_PERICENTER = 77.4468
MEAN_ANOMALY   = 110.4657

EPHEMERIS_TYPE = 0
CLASSIFICATION_TYPE = U
NORAD_CAT_ID   = 67726
ELEMENT_SET_NO = 999
REV_AT_EPOCH   = 460
BSTAR          = -.27170389E-1
MEAN_MOTION_DOT = -.1987656E-1
MEAN_MOTION_DDOT = 0

CCSDS_OMM_VERS = 2.0
CREATION_DATE  = 
ORIGINATOR     = 

OBJECT_NAME    = STARLINK-36741
OBJECT_ID      = 2026-026G
CENTER_NAME    = EARTH
REF_FRAME      = TEME
TIME_SYSTEM    = UTC
MEAN_ELEMENT_THEORY = SGP/SGP4

EPOCH          = 2026-03-05T06:00:02.999808
MEAN_MOTION    = 15.61922023
ECCENTRICITY   = .00017824
INCLINATION    = 97.2833
RA_OF_ASC_NODE = 118.6725
ARG_OF_PERICENTER = 80.9894
MEAN_ANOMALY   = 130.6120

EPHEMERIS_TYPE = 0
CLASSIFICATION_TYPE = U
NORAD_CAT_ID   = 67727
ELEMENT_SET_NO = 999
REV_AT_EPOCH   = 460
BSTAR          = -.25972618E-1
MEAN_MOTION_DOT = -.1985048E-1
MEAN_MOTION_DDOT = 0

CCSDS_OMM_VERS = 2.0
CREATION_DATE  = 
ORIGINATOR     = 

OBJECT_NAME    = STARLINK-36757
OBJECT_ID      = 2026-026H
CENTER_NAME    = EARTH
REF_FRAME      = TEME
TIME_SYSTEM    = UTC
MEAN_ELEMENT_THEORY = SGP/SGP4

EPOCH          = 2026-03-05T06:00:02.999808
MEAN_MOTION    = 15.66392537
ECCENTRICITY   = .00014775
INCLINATION    = 97.2838
RA_OF_ASC_NODE = 118.7027
ARG_OF_PERICENTER = 74.2902
MEAN_ANOMALY   = 207.9679

EPHEMERIS_TYPE = 0
CLASSIFICATION_TYPE = U
NORAD_CAT_ID   = 67728
ELEMENT_SET_NO = 999
REV_AT_EPOCH   = 460
BSTAR          = -.21869249E-1
MEAN_MOTION_DOT = -.1994578E-1
MEAN_MOTION_DDOT = 0

CCSDS_OMM_VERS = 2.0
CREATION_DATE  = 
ORIGINATOR     = 

OBJECT_NAME    = STARLINK-36751
OBJECT_ID      = 2026-026J
CENTER_NAME    = EARTH
REF_FRAME      = TEME
TIME_SYSTEM    = UTC
MEAN_ELEMENT_THEORY = SGP/SGP4

EPOCH          = 2026-03-05T06:00:02.999808
MEAN_MOTION    = 15.66962322
ECCENTRICITY   = .00014213
INCLINATION    = 97.2841
RA_OF_ASC_NODE = 118.7118
ARG_OF_PERICENTER = 71.6551
MEAN_ANOMALY   = 231.5689

EPHEMERIS_TYPE = 0
CLASSIFICATION_TYPE = U
NORAD_CAT_ID   = 67729
ELEMENT_SET_NO = 999
REV_AT_EPOCH   = 460
BSTAR          = -.21426983E-1
MEAN_MOTION_DOT = -.199925E-1
MEAN_MOTION_DDOT = 0

CCSDS_OMM_VERS = 2.0
CREATION_DATE  = 
ORIGINATOR     = 

OBJECT_NAME    = STARLINK-36747
OBJECT_ID      = 2026-026K
CENTER_NAME    = EARTH
REF_FRAME      = TEME
TIME_SYSTEM    = UTC
MEAN_ELEMENT_THEORY = SGP/SGP4

EPOCH          = 2026-03-05T06:00:02.999808
MEAN_MOTION    = 15.66862827
ECCENTRICITY   = .00014529
INCLINATION    = 97.2843
RA_OF_ASC_NODE = 118.7075
ARG_OF_PERICENTER = 72.4877
MEAN_ANOMALY   = 220.9918

EPHEMERIS_TYPE = 0
CLASSIFICATION_TYPE = U
NORAD_CAT_ID   = 67730
ELEMENT_SET_NO = 999
REV_AT_EPOCH   = 460
BSTAR          = -.2152258E-1
MEAN_MOTION_DOT = -.1999993E-1
MEAN_MOTION_DDOT = 0

CCSDS_OMM_VERS = 2.0
CREATION_DATE  = 
ORIGINATOR     = 

OBJECT_NAME    = STARLINK-36315
OBJECT_ID      = 2026-026L
CENTER_NAME    = EARTH
REF_FRAME      = TEME
TIME_SYSTEM    = UTC
MEAN_ELEMENT_THEORY = SGP/SGP4

EPOCH          = 2026-03-05T06:00:02.999808
MEAN_MOTION    = 15.67138227
ECCENTRICITY   = .0001338
INCLINATION    = 97.2840
RA_OF_ASC_NODE = 118.7149
ARG_OF_PERICENTER = 80.5608
MEAN_ANOMALY   = 230.2323

EPHEMERIS_TYPE = 0
CLASSIFICATION_TYPE = U
NORAD_CAT_ID   = 67731
ELEMENT_SET_NO = 999
REV_AT_EPOCH   = 460
BSTAR          = -.21255042E-1
MEAN_MOTION_DOT = -.1997602E-1
MEAN_MOTION_DDOT = 0

CCSDS_OMM_VERS = 2.0
CREATION_DATE  = 
ORIGINATOR     = 

OBJECT_NAME    = STARLINK-36260
OBJECT_ID      = 2026-026M
CENTER_NAME    = EARTH
REF_FRAME      = TEME
TIME_SYSTEM    = UTC
MEAN_ELEMENT_THEORY = SGP/SGP4

EPOCH          = 2026-03-05T06:00:02.999808
MEAN_MOTION    = 15.67519508
ECCENTRICITY   = .0001406
INCLINATION    = 97.2840
RA_OF_ASC_NODE = 118.7197
ARG_OF_PERICENTER = 64.4052
MEAN_ANOMALY   = 257.5123

EPHEMERIS_TYPE = 0
CLASSIFICATION_TYPE = U
NORAD_CAT_ID   = 67732
ELEMENT_SET_NO = 999
REV_AT_EPOCH   = 460
BSTAR          = -.20949196E-1
MEAN_MOTION_DOT = -.1999518E-1
MEAN_MOTION_DDOT = 0

CCSDS_OMM_VERS = 2.0
CREATION_DATE  = 
ORIGINATOR     = 

OBJECT_NAME    = STARLINK-36746
OBJECT_ID      = 2026-026N
CENTER_NAME    = EARTH
REF_FRAME      = TEME
TIME_SYSTEM    = UTC
MEAN_ELEMENT_THEORY = SGP/SGP4

EPOCH          = 2026-03-05T06:00:02.999808
MEAN_MOTION    = 15.49181373
ECCENTRICITY   = .00015674
INCLINATION    = 97.2844
RA_OF_ASC_NODE = 118.5515
ARG_OF_PERICENTER = 54.5333
MEAN_ANOMALY   = 230.4365

EPHEMERIS_TYPE = 0
CLASSIFICATION_TYPE = U
NORAD_CAT_ID   = 67733
ELEMENT_SET_NO = 999
REV_AT_EPOCH   = 460
BSTAR          = .28713818E-3
MEAN_MOTION_DOT = .15553E-3
MEAN_MOTION_DDOT = 0

